start=new Date('2022-04-25T00:00:00.000Z').valueOf();
sats=[{"GP_ID":"201942008","BSTAR":"0.00006474400000","NORAD_CAT_ID":"45738","ARG_OF_PERICENTER":"49.0901","RCS_SIZE":"LARGE","CENTER_NAME":"EARTH","REF_FRAME":"TEME","MEAN_MOTION_DDOT":"0.0000000000000","ELEMENT_SET_NO":"999","PERIAPSIS":"545.855","OBJECT_NAME":"STARLINK-1474","EPOCH":"2022-04-24T16:07:34.402080","MEAN_ELEMENT_THEORY":"SGP4","APOAPSIS":"548.561","MEAN_MOTION_DOT":"0.00000683","CLASSIFICATION_TYPE":"U","INCLINATION":"53.0553","COUNTRY_CODE":"US","MEAN_ANOMALY":"311.0257","PERIOD":"95.592","TIME_SYSTEM":"UTC","TLE_LINE1":"1 45738U 20038J   22114.67192595  .00000683  00000-0  64744-4 0  9990","FILE":"3414366","RA_OF_ASC_NODE":"108.8814","SEMIMAJOR_AXIS":"6925.343","OBJECT_TYPE":"PAYLOAD","REV_AT_EPOCH":"10403","DECAY_DATE":null,"EPHEMERIS_TYPE":"0","LAUNCH_DATE":"2020-06-13","OBJECT_ID":"2020-038J","TLE_LINE2":"2 45738  53.0553 108.8814 0001954  49.0901 311.0257 15.06401753104031","ECCENTRICITY":"0.00019540","SITE":"AFETR","MEAN_MOTION":"15.06401753"},{"APOAPSIS":"548.500","MEAN_MOTION_DOT":"-0.00000590","OBJECT_NAME":"STARLINK-1475","MEAN_ELEMENT_THEORY":"SGP4","EPOCH":"2022-04-24T06:55:33.895200","INCLINATION":"53.0561","COUNTRY_CODE":"US","MEAN_ANOMALY":"310.5000","CLASSIFICATION_TYPE":"U","RCS_SIZE":"LARGE","CENTER_NAME":"EARTH","REF_FRAME":"TEME","BSTAR":"-0.00002069400000","GP_ID":"201933384","NORAD_CAT_ID":"45739","ARG_OF_PERICENTER":"49.6151","ELEMENT_SET_NO":"999","MEAN_MOTION_DDOT":"0.0000000000000","PERIAPSIS":"545.921","TLE_LINE2":"2 45739  53.0561  70.5960 0001862  49.6151 310.5000 15.06400934103410","OBJECT_ID":"2020-038K","DECAY_DATE":null,"REV_AT_EPOCH":"10341","LAUNCH_DATE":"2020-06-13","EPHEMERIS_TYPE":"0","MEAN_MOTION":"15.06400934","SITE":"AFETR","ECCENTRICITY":"0.00018620","TIME_SYSTEM":"UTC","PERIOD":"95.592","SEMIMAJOR_AXIS":"6925.346","OBJECT_TYPE":"PAYLOAD","FILE":"3414186","TLE_LINE1":"1 45739U 20038K   22114.28858675 -.00000590  00000-0 -20694-4 0  9991","RA_OF_ASC_NODE":"70.5960"},{"MEAN_MOTION_DOT":"0.00001113","APOAPSIS":"548.471","MEAN_ELEMENT_THEORY":"SGP4","EPOCH":"2022-04-24T16:18:11.673792","OBJECT_NAME":"STARLINK-1479","COUNTRY_CODE":"US","MEAN_ANOMALY":"302.5848","INCLINATION":"53.0534","CLASSIFICATION_TYPE":"U","REF_FRAME":"TEME","CENTER_NAME":"EARTH","RCS_SIZE":"LARGE","ARG_OF_PERICENTER":"57.5315","NORAD_CAT_ID":"45740","GP_ID":"201944543","BSTAR":"0.00009358800000","PERIAPSIS":"545.974","MEAN_MOTION_DDOT":"0.0000000000000","ELEMENT_SET_NO":"999","OBJECT_ID":"2020-038L","TLE_LINE2":"2 45740  53.0534 108.8510 0001803  57.5315 302.5848 15.06397198104030","EPHEMERIS_TYPE":"0","LAUNCH_DATE":"2020-06-13","REV_AT_EPOCH":"10403","DECAY_DATE":null,"SITE":"AFETR","MEAN_MOTION":"15.06397198","ECCENTRICITY":"0.00018030","TIME_SYSTEM":"UTC","PERIOD":"95.592","OBJECT_TYPE":"PAYLOAD","SEMIMAJOR_AXIS":"6925.357","RA_OF_ASC_NODE":"108.8510","TLE_LINE1":"1 45740U 20038L   22114.67930178  .00001113  00000-0  93588-4 0  9997","FILE":"3414458"},{"REF_FRAME":"TEME","CENTER_NAME":"EARTH","RCS_SIZE":"LARGE","ARG_OF_PERICENTER":"54.1837","NORAD_CAT_ID":"45741","GP_ID":"201942054","BSTAR":"0.00007485200000","PERIAPSIS":"545.786","MEAN_MOTION_DDOT":"0.0000000000000","ELEMENT_SET_NO":"999","MEAN_MOTION_DOT":"0.00000833","APOAPSIS":"548.665","EPOCH":"2022-04-24T17:11:16.560096","MEAN_ELEMENT_THEORY":"SGP4","OBJECT_NAME":"STARLINK-1480","MEAN_ANOMALY":"305.9345","COUNTRY_CODE":"US","INCLINATION":"53.0553","CLASSIFICATION_TYPE":"U","TIME_SYSTEM":"UTC","PERIOD":"95.592","OBJECT_TYPE":"PAYLOAD","SEMIMAJOR_AXIS":"6925.360","RA_OF_ASC_NODE":"108.6932","TLE_LINE1":"1 45741U 20038M   22114.71616389  .00000833  00000-0  74852-4 0  9999","FILE":"3414348","OBJECT_ID":"2020-038M","TLE_LINE2":"2 45741  53.0553 108.6932 0002079  54.1837 305.9345 15.06396167104041","LAUNCH_DATE":"2020-06-13","EPHEMERIS_TYPE":"0","REV_AT_EPOCH":"10404","DECAY_DATE":null,"SITE":"AFETR","MEAN_MOTION":"15.06396167","ECCENTRICITY":"0.00020790"},{"EPOCH":"2022-04-24T09:02:57.691968","MEAN_ELEMENT_THEORY":"SGP4","OBJECT_NAME":"STARLINK-1481","MEAN_MOTION_DOT":"-0.00000943","APOAPSIS":"548.641","CLASSIFICATION_TYPE":"U","MEAN_ANOMALY":"310.8049","COUNTRY_CODE":"US","INCLINATION":"53.0539","ARG_OF_PERICENTER":"49.3117","NORAD_CAT_ID":"45742","BSTAR":"-0.00004443900000","GP_ID":"201932633","REF_FRAME":"TEME","CENTER_NAME":"EARTH","RCS_SIZE":"LARGE","PERIAPSIS":"545.821","MEAN_MOTION_DDOT":"0.0000000000000","ELEMENT_SET_NO":"999","LAUNCH_DATE":"2020-06-13","EPHEMERIS_TYPE":"0","DECAY_DATE":null,"REV_AT_EPOCH":"10286","TLE_LINE2":"2 45742  53.0539 110.1948 0002036  49.3117 310.8049 15.06394182102860","OBJECT_ID":"2020-038N","ECCENTRICITY":"0.00020360","MEAN_MOTION":"15.06394182","SITE":"AFETR","PERIOD":"95.593","TIME_SYSTEM":"UTC","RA_OF_ASC_NODE":"110.1948","FILE":"3414186","TLE_LINE1":"1 45742U 20038N   22114.37705662 -.00000943  00000-0 -44439-4 0  9997","OBJECT_TYPE":"PAYLOAD","SEMIMAJOR_AXIS":"6925.366"},{"MEAN_ELEMENT_THEORY":"SGP4","EPOCH":"2022-04-24T09:28:08.325984","OBJECT_NAME":"STARLINK-1483","MEAN_MOTION_DOT":"-0.00000578","APOAPSIS":"548.863","CLASSIFICATION_TYPE":"U","MEAN_ANOMALY":"325.0029","COUNTRY_CODE":"US","INCLINATION":"53.0603","NORAD_CAT_ID":"45743","ARG_OF_PERICENTER":"35.1116","BSTAR":"-0.00001987400000","GP_ID":"201933884","REF_FRAME":"TEME","CENTER_NAME":"EARTH","RCS_SIZE":"LARGE","PERIAPSIS":"545.573","ELEMENT_SET_NO":"999","MEAN_MOTION_DDOT":"0.0000000000000","LAUNCH_DATE":"2020-06-13","EPHEMERIS_TYPE":"0","DECAY_DATE":null,"REV_AT_EPOCH":"10287","TLE_LINE2":"2 45743  53.0603 110.0097 0002376  35.1116 325.0029 15.06398558102874","OBJECT_ID":"2020-038P","ECCENTRICITY":"0.00023760","MEAN_MOTION":"15.06398558","SITE":"AFETR","PERIOD":"95.592","TIME_SYSTEM":"UTC","RA_OF_ASC_NODE":"110.0097","FILE":"3414186","TLE_LINE1":"1 45743U 20038P   22114.39454081 -.00000578  00000-0 -19874-4 0  9995","OBJECT_TYPE":"PAYLOAD","SEMIMAJOR_AXIS":"6925.353"},{"PERIAPSIS":"545.755","ELEMENT_SET_NO":"999","MEAN_MOTION_DDOT":"0.0000000000000","ARG_OF_PERICENTER":"38.4063","NORAD_CAT_ID":"45744","GP_ID":"201933635","BSTAR":"0.00002642200000","REF_FRAME":"TEME","CENTER_NAME":"EARTH","RCS_SIZE":"LARGE","CLASSIFICATION_TYPE":"U","COUNTRY_CODE":"US","MEAN_ANOMALY":"321.7075","INCLINATION":"53.0545","MEAN_ELEMENT_THEORY":"SGP4","EPOCH":"2022-04-24T08:47:02.345568","OBJECT_NAME":"STARLINK-1500","MEAN_MOTION_DOT":"0.00000112","APOAPSIS":"548.661","RA_OF_ASC_NODE":"110.2409","FILE":"3414186","TLE_LINE1":"1 45744U 20038Q   22114.36599937  .00000112  00000-0  26422-4 0  9992","OBJECT_TYPE":"PAYLOAD","SEMIMAJOR_AXIS":"6925.343","PERIOD":"95.592","TIME_SYSTEM":"UTC","ECCENTRICITY":"0.00020980","MEAN_MOTION":"15.06401797","SITE":"AFETR","LAUNCH_DATE":"2020-06-13","EPHEMERIS_TYPE":"0","DECAY_DATE":null,"REV_AT_EPOCH":"10287","TLE_LINE2":"2 45744  53.0545 110.2409 0002098  38.4063 321.7075 15.06401797102871","OBJECT_ID":"2020-038Q"},{"PERIAPSIS":"545.915","ELEMENT_SET_NO":"999","MEAN_MOTION_DDOT":"0.0000000000000","REF_FRAME":"TEME","RCS_SIZE":"LARGE","CENTER_NAME":"EARTH","ARG_OF_PERICENTER":"52.7741","NORAD_CAT_ID":"45745","GP_ID":"201932883","BSTAR":"0.00013457000000","COUNTRY_CODE":"US","MEAN_ANOMALY":"307.3420","INCLINATION":"53.0526","CLASSIFICATION_TYPE":"U","MEAN_MOTION_DOT":"0.00001723","APOAPSIS":"548.521","MEAN_ELEMENT_THEORY":"SGP4","EPOCH":"2022-04-24T08:31:06.874752","OBJECT_NAME":"STARLINK-1503","OBJECT_TYPE":"PAYLOAD","SEMIMAJOR_AXIS":"6925.353","RA_OF_ASC_NODE":"110.3034","FILE":"3414186","TLE_LINE1":"1 45745U 20038R   22114.35494068  .00001723  00000-0  13457-3 0  9993","TIME_SYSTEM":"UTC","PERIOD":"95.592","MEAN_MOTION":"15.06398509","SITE":"AFETR","ECCENTRICITY":"0.00018820","TLE_LINE2":"2 45745  53.0526 110.3034 0001882  52.7741 307.3420 15.06398509102867","OBJECT_ID":"2020-038R","LAUNCH_DATE":"2020-06-13","EPHEMERIS_TYPE":"0","DECAY_DATE":null,"REV_AT_EPOCH":"10286"},{"CLASSIFICATION_TYPE":"U","MEAN_ANOMALY":"314.9221","COUNTRY_CODE":"US","INCLINATION":"53.0553","EPOCH":"2022-04-24T16:50:02.510880","MEAN_ELEMENT_THEORY":"SGP4","OBJECT_NAME":"STARLINK-1504","MEAN_MOTION_DOT":"0.00001426","APOAPSIS":"548.836","PERIAPSIS":"545.581","ELEMENT_SET_NO":"999","MEAN_MOTION_DDOT":"0.0000000000000","ARG_OF_PERICENTER":"45.1959","NORAD_CAT_ID":"45746","GP_ID":"201942607","BSTAR":"0.00011464000000","REF_FRAME":"TEME","CENTER_NAME":"EARTH","RCS_SIZE":"LARGE","ECCENTRICITY":"0.00023500","SITE":"AFETR","MEAN_MOTION":"15.06401767","EPHEMERIS_TYPE":"0","LAUNCH_DATE":"2020-06-13","REV_AT_EPOCH":"10384","DECAY_DATE":null,"OBJECT_ID":"2020-038S","TLE_LINE2":"2 45746  53.0553 108.7379 0002350  45.1959 314.9221 15.06401767103842","RA_OF_ASC_NODE":"108.7379","TLE_LINE1":"1 45746U 20038S   22114.70141795  .00001426  00000-0  11464-3 0  9995","FILE":"3414352","OBJECT_TYPE":"PAYLOAD","SEMIMAJOR_AXIS":"6925.343","PERIOD":"95.592","TIME_SYSTEM":"UTC"},{"PERIAPSIS":"545.747","ELEMENT_SET_NO":"999","MEAN_MOTION_DDOT":"0.0000000000000","REF_FRAME":"TEME","CENTER_NAME":"EARTH","RCS_SIZE":"LARGE","NORAD_CAT_ID":"45747","ARG_OF_PERICENTER":"45.6656","GP_ID":"201942135","BSTAR":"0.00010463000000","MEAN_ANOMALY":"314.4508","COUNTRY_CODE":"US","INCLINATION":"53.0543","CLASSIFICATION_TYPE":"U","MEAN_MOTION_DOT":"0.00001277","APOAPSIS":"548.697","EPOCH":"2022-04-24T16:55:21.199872","MEAN_ELEMENT_THEORY":"SGP4","OBJECT_NAME":"STARLINK-1506","OBJECT_TYPE":"PAYLOAD","SEMIMAJOR_AXIS":"6925.357","RA_OF_ASC_NODE":"108.7305","TLE_LINE1":"1 45747U 20038T   22114.70510648  .00001277  00000-0  10463-3 0  9995","FILE":"3414353","TIME_SYSTEM":"UTC","PERIOD":"95.592","SITE":"AFETR","MEAN_MOTION":"15.06397181","ECCENTRICITY":"0.00021300","OBJECT_ID":"2020-038T","TLE_LINE2":"2 45747  53.0543 108.7305 0002130  45.6656 314.4508 15.06397181103843","LAUNCH_DATE":"2020-06-13","EPHEMERIS_TYPE":"0","REV_AT_EPOCH":"10384","DECAY_DATE":null}];
